STARLINK-1010
1 14716C 19074D   21326.16445685  .00002745  00000-0  18389-3 0  3260
2 14716  53.0568  28.0018 0001483  71.6430  67.9919 15.06403696    19
